GOES 19                 
1 60133U 24119A   26088.17162699 -.00000267  00000+0  00000+0 0  9999
2 60133   0.0341  15.2164 0000848  26.6354 131.2883  1.00269859  6167
FENGYUN 3H              
1 65815U 25219A   26088.13270780  .00000081  00000+0  58510-4 0  9997
2 65815  98.6709  30.4840 0000840  61.6239 298.5022 14.19937606 26028
