[{"OBJECT_NAME":"GOES 19","OBJECT_ID":"2024-119A","EPOCH":"2026-03-29T04:07:08.571936","MEAN_MOTION":1.00269859,"ECCENTRICITY":8.48e-5,"INCLINATION":0.0341,"RA_OF_ASC_NODE":15.2164,"ARG_OF_PERICENTER":26.6354,"MEAN_ANOMALY":131.2883,"EPHEMERIS_TYPE":0,"CLASSIFICATION_TYPE":"U","NORAD_CAT_ID":60133,"ELEMENT_SET_NO":999,"REV_AT_EPOCH":616,"BSTAR":0,"MEAN_MOTION_DOT":-2.67e-6,"MEAN_MOTION_DDOT":0},{"OBJECT_NAME":"FENGYUN 3H","OBJECT_ID":"2025-219A","EPOCH":"2026-03-29T03:11:05.953920","MEAN_MOTION":14.19937606,"ECCENTRICITY":8.4e-5,"INCLINATION":98.6709,"RA_OF_ASC_NODE":30.484,"ARG_OF_PERICENTER":61.6239,"MEAN_ANOMALY":298.5022,"EPHEMERIS_TYPE":0,"CLASSIFICATION_TYPE":"U","NORAD_CAT_ID":65815,"ELEMENT_SET_NO":999,"REV_AT_EPOCH":2602,"BSTAR":5.851e-5,"MEAN_MOTION_DOT":8.1e-7,"MEAN_MOTION_DDOT":0}]
